spkid,pdes,full_name,neo,pha,H,epoch,e,a,q,i,om,w,ma,tp,per_y,moid,sigma_e,sigma_a,sigma_q,sigma_i,sigma_om,sigma_w,sigma_ma,condition_code,n_obs_used,data_arc
54005703,2020 DA4,       (2020 DA4),Y,N,25.59,2461200.5,0.4315826649672594,1.618470183782188,0.9199665086954216,0.8449408937748707,180.461612632513,24.37401954312657,0.3474076189472839,2461199.774241185,2.0590422438924,0.0040775,1.8552e-08,1.2288e-08,2.4127e-08,4.2538e-06,9.2115e-05,8.6404e-05,1.1782e-05,0.0,185,829.0
54005708,2020 DG4,       (2020 DG4),Y,N,28.15,2461200.5,0.3188737498130786,1.325468085784828,0.9028111070130568,0.8132297161487538,161.658117436412,297.3137621464433,85.50033173995266,2461068.1214441448,1.52602664047524,0.00307757,2.1189e-07,7.4111e-08,2.6771e-07,4.6865e-06,3.9435e-05,6.4156e-05,7.1457e-05,0.0,80,1105.0
54016196,2020 FE,       (2020 FE),Y,N,22.4,2461200.5,0.7389798753228403,2.175226833387572,0.5677779792519274,0.4152387325254373,146.0390851555686,133.1506718819557,316.1224388789927,2461343.3220406487,3.20822656299462,0.00482422,7.6959e-08,6.87e-08,1.4969e-07,6.083e-06,0.00088623,0.00088872,2.9134e-05,0.0,75,1327.0
54016203,2020 FL,       (2020 FL),Y,N,24.81,2461200.5,0.3968353261032452,0.8712486379331086,0.5255064005819152,5.895495205227418,358.0164095279044,309.8360862736417,147.0716202033026,2461079.150505612,0.813244941321085,0.00257107,1.7216e-05,6.7345e-07,1.4593e-05,0.00031613,4.52e-05,1.0506e-05,0.0011524,3.0,82,1423.0
54016204,2020 FM,       (2020 FM),Y,N,24.1,2461200.5,0.312470410463583,0.9921667626229018,0.6821440070577993,21.61259571456343,173.0346150073417,246.2856871987108,187.6806662550382,2461373.285360784,0.988291849027222,0.0227849,6.2404e-06,9.0242e-08,6.2428e-06,0.00029941,2.7773e-05,0.000273,0.00033275,2.0,72,369.0
54016235,2020 FR1,       (2020 FR1),Y,Y,21.23,2461200.5,0.6146258484419195,1.406470224803633,0.5420172695754029,13.11441472442047,26.37046640439426,255.8859343060448,223.0871494074123,2461432.205291863,1.668030609744,0.00984046,5.0822e-06,3.4809e-08,7.1361e-06,7.198e-05,0.00024012,0.00046597,2.6718e-05,0.0,80,1842.0
54016280,2020 FH2,       (2020 FH2),Y,Y,21.16,2461200.5,0.4933342402560229,1.81548670515297,0.919844950771419,7.991677739407075,55.64533767150067,51.92107372904195,218.8866818034229,2461550.7301576566,2.44623294970047,0.0297371,4.6689e-08,1.0918e-08,8.925e-08,1.1398e-05,6.9335e-05,6.1292e-05,7.2239e-06,0.0,146,1810.0
54016321,2020 FJ3,       (2020 FJ3),Y,N,23.93,2461200.5,0.2842192258615623,0.8300410706383149,0.5941274401081906,13.29665055157125,3.292433884675389,19.50115491250838,228.4081174176215,2461301.465825177,0.756236395919147,0.0393954,4.8814e-07,1.3069e-08,4.0079e-07,3.047e-05,6.5928e-06,0.00012588,0.00024205,1.0,31,1099.0
54016324,2020 FN3,       (2020 FN3),Y,N,24.49,2461200.5,0.207994652565738,1.012703426824834,0.8020665294102702,0.895608368094069,20.61809822827769,269.8056231699201,305.0690580170166,2461257.298437945,1.01913477672891,0.00203879,7.3851e-07,5.1631e-08,7.0721e-07,4.5253e-06,0.00018972,0.0001759,0.00011883,1.0,62,2090.0
54016338,2020 FC4,       (2020 FC4),Y,N,23.06,2461200.5,0.6024827017600379,2.040282067549778,0.8110474151398316,5.453000857424242,75.85241803714393,28.421436035801,68.53527753161778,2460997.850554097,2.91436217062565,0.0463706,6.3636e-08,5.7816e-08,1.5194e-07,2.924e-05,0.00045657,0.0004193,1.6839e-05,0.0,40,961.0
54016356,2020 FL4,       (2020 FL4),Y,N,26.96,2461200.5,0.2199654823886073,1.305651939009912,1.018453580413976,5.532371859516917,14.16337612415549,200.9281057490913,34.20101817740645,2461148.730247522,1.49193303138377,0.0250159,8.7522e-07,2.0792e-08,1.1571e-06,2.5729e-05,2.0865e-05,0.00073367,0.00040846,1.0,49,1099.0
54016365,2020 FA5,       (2020 FA5),Y,Y,21.19,2461200.5,0.8007445165891836,1.913836855825529,0.3813424878769527,6.558780743298456,39.31096294592228,242.2026221925481,101.2099547479003,2460928.6204593773,2.64768047584673,0.00993013,5.8148e-08,5.1375e-08,1.1857e-07,1.374e-05,1.5696e-05,2.1081e-05,5.4762e-06,0.0,169,2108.0
54016396,2020 FW5,       (2020 FW5),Y,N,25.72,2461200.5,0.4329256471511163,1.592839595745046,0.9032584829491996,16.29859160847836,185.5998664836488,53.23968341456513,11.78931514392861,2461176.4540152205,2.01032496958102,0.0213418,4.1382e-07,3.8373e-09,6.5929e-07,4.5373e-05,4.0569e-06,0.00013927,4.2531e-05,0.0,76,735.0
54016410,2020 FM6,       (2020 FM6),Y,Y,21.94,2461200.5,0.4939131014261484,1.363739168090974,0.6901705260428456,14.98429931496002,30.42216386244028,276.1374692374944,266.7298278553201,2461351.2077810606,1.59259436007893,0.00761173,8.5317e-08,1.9227e-08,1.0673e-07,1.6398e-05,5.938e-06,1.1473e-05,1.4287e-05,0.0,204,1352.0
54016413,2020 FQ6,       (2020 FQ6),Y,N,25.07,2461200.5,0.5373981885401834,2.090841956992354,0.9672272767808509,6.415711032429625,189.9855288650755,43.82212512277972,7.450109786279281,2461177.6471479232,3.0233610380421,0.0294355,2.3052e-07,3.8168e-09,4.8145e-07,2.03e-05,1.2829e-05,0.00011765,3.1775e-05,0.0,60,1115.0
54016433,2020 GE,       (2020 GE),Y,N,28.17,2461200.5,0.04953894916812334,0.9872736634635992,0.9383651636342492,1.671854881156746,171.7261538369749,68.13504377781186,23.92196186314073,2461176.6905673034,0.980989886706308,0.00124848,4.5316e-08,6.9036e-08,3.7862e-08,3.8576e-06,1.8268e-05,0.00024177,0.00034094,1.0,58,1699.0
54016467,2020 GH1,       (2020 GH1),Y,N,25.62,2461200.5,0.3663976583958856,1.595296089168574,1.010783337649095,9.666914226023144,188.9195047953129,17.60522577258081,20.94344509824574,2461157.684009093,2.01497727755771,0.0222335,8.7859e-08,9.1353e-09,1.4022e-07,4.089e-05,3.0652e-05,0.00018248,7.9602e-05,0.0,59,734.0
54016489,2020 GA2,       (2020 GA2),Y,Y,21.14,2461200.5,0.4268640181377024,1.281442501256641,0.7344408061578036,42.98187302046132,22.88695741266161,93.01974441415514,128.2086108110456,2461011.8043855797,1.45063078019947,0.0193055,7.0881e-08,5.3123e-08,1.1818e-07,2.831e-05,2.2453e-06,1.6526e-05,0.0001008,1.0,269,4607.0
54016533,2020 GE3,       (2020 GE3),Y,N,26.11,2461200.5,0.2345065230579437,0.9023544931689672,0.6907464784101996,1.455944027469019,171.9914804608707,189.1638131814788,283.4438070114195,2461267.0797304334,0.857183850098203,0.0179306,6.2224e-08,3.1173e-09,5.7538e-08,1.0397e-05,0.00033626,0.00032984,1.3508e-05,0.0,50,4431.0
54016576,2020 HY,       (2020 HY),Y,N,22.91,2461200.5,0.5525085184645723,0.8988116541534603,0.4022105587384404,18.26885090063087,207.129794850415,224.514512908067,156.2873370316808,2461065.3790282733,0.852140574516805,0.0118953,6.6296e-08,8.1546e-09,6.1242e-08,7.4031e-06,7.6615e-06,7.2136e-06,4.0805e-05,0.0,120,2225.0
54016613,2020 HY1,       (2020 HY1),Y,N,24.31,2461200.5,0.3304353122193247,0.8786067989594967,0.588284087027294,2.516867509682602,186.6970215474029,223.8355911038637,307.8915668987104,2461244.0407373817,0.823569096338333,0.00438002,1.9241e-06,6.7776e-08,1.7359e-06,1.7905e-05,0.00011434,7.8254e-05,0.00033291,2.0,58,1898.0
54016672,2020 HR3,       (2020 HR3),Y,N,24.04,2461200.5,0.34108197264451,1.090103680933395,0.7182889670535909,8.288095446936618,47.24274643684195,279.3945932196351,59.6814118235348,2461131.5813560653,1.13817727832326,0.00406371,2.3991e-06,8.1187e-07,2.0817e-06,2.9259e-05,8.5287e-05,6.3507e-05,0.0019542,3.0,45,594.0
54016684,2020 HJ4,       (2020 HJ4),Y,Y,20.15,2461200.5,0.5765514664103543,2.069617433672259,0.8763764673800841,1.223520843916459,105.1997795393928,233.2622346408572,321.6491713483833,2461316.3526012343,2.97744202114746,0.000699284,1.8006e-07,3.233e-08,3.7575e-07,1.145e-05,0.0013145,0.0013154,1.5903e-05,0.0,85,4389.0
54016712,2020 HU4,       (2020 HU4),Y,N,22.11,2461200.5,0.2688618046957864,1.314300051543313,0.9609349677736124,0.6887777152321957,229.5532920474659,177.0421298868766,177.1130618964978,2460929.7376313913,1.50678049484323,0.00495733,5.9858e-06,9.5968e-08,7.801e-06,3.7932e-05,0.0010182,0.0013839,0.0014435,2.0,45,4372.0
54016715,2020 HV4,       (2020 HV4),Y,N,23.35,2461200.5,0.3526972170912458,1.331979096989879,0.8621937762578384,10.86037394014963,43.0689509738984,239.0478377056563,317.5866075884708,2461266.652315603,1.53728474090153,0.0117091,1.5892e-07,3.9951e-08,1.8612e-07,1.1841e-05,2.5621e-05,3.5998e-05,6.7423e-05,1.0,83,1304.0
54016741,2020 HX5,       (2020 HX5),Y,N,22.43,2461200.5,0.3243524548267812,1.517848202955851,1.025530412272702,4.299150852602976,255.6074986652258,52.32718973750912,42.35388935202488,2461120.1415160005,1.87003921323881,0.0475782,1.1042e-07,8.7935e-08,1.1234e-07,6.8804e-06,9.013e-05,8.8789e-05,0.00011819,1.0,77,954.0
54016772,2020 HA7,       (2020 HA7),Y,N,22.84,2461200.5,0.462989114782911,1.615287115899518,0.8674267639889589,11.65593324324776,191.8605385972665,308.2256291766487,24.63265984660584,2461149.192384756,2.05297091083819,0.00759627,1.0899e-07,4.9582e-08,1.4968e-07,2.7358e-05,7.7872e-05,6.4772e-05,6.1781e-05,1.0,51,937.0
54016914,2020 HG9,       (2020 HG9),Y,N,23.38,2461200.5,0.4184440399909256,0.8640112889452366,0.502470914601225,1.738272450105313,64.44460452054284,308.8640565635167,97.8908627814872,2461120.734111387,0.803132734756594,0.00316243,1.4882e-06,5.2265e-08,1.2555e-06,1.0691e-05,6.2383e-05,6.0071e-05,0.00011605,1.0,199,1470.0
54016947,2020 JB,       (2020 JB),Y,N,23.47,2461200.5,0.5030346461368423,1.847083477547516,0.9179364940341932,7.379564866842318,59.16391818002545,118.8694688665648,169.5644759868572,2460768.622495293,2.51037145225565,0.0367893,1.3004e-07,2.282e-09,2.4102e-07,1.9294e-05,1.7077e-05,5.2753e-05,1.2748e-05,0.0,149,1854.0
54017111,2020 JC3,       (2020 JC3),Y,Y,21.59,2461200.5,0.6722782248549362,2.463430290917532,0.8073197478856146,5.188850331363151,259.8998663075425,241.8725740794617,223.9745320663989,2461734.11320792,3.86650537482144,0.00815375,8.3638e-08,7.1991e-08,2.2895e-07,1.955e-05,0.00012223,0.00013065,1.0099e-05,0.0,61,1455.0
